[{
        "guid": "000041b9-e2d6-57c7-925b-a111eac393b4",
        "first": "Dennis",
        "last": "Mills",
        "street": "Ehaip Terrace",
        "city": "Bilifef",
        "zip": 73270
    },
    {
        "guid": "00030133-935d-5f8b-8764-cdcf136260c0",
        "first": "Lola",
        "last": "Brewer",
        "street": "Ginje View",
        "city": "Jusaduzi",
        "zip": 75762
    },
    {
        "guid": "0005be63-9708-5dbd-9b24-d8d342b49d4d",
        "first": "Ivan",
        "last": "Weaver",
        "street": "Fehdog Court",
        "city": "Nutcomlup",
        "zip": 57791
    },
    {
        "guid": "0006ced4-e16b-5a5e-9f33-ed9445a6d29e",
        "first": "Fannie",
        "last": "Horton",
        "street": "Gejig Way",
        "city": "Zofzeel",
        "zip": 20474
    },
    {
        "guid": "00093b00-ec0a-55ab-afc8-309b2a29bcf1",
        "first": "Maud",
        "last": "Mason",
        "street": "Kedfe Plaza",
        "city": "Puroca",
        "zip": 17092
    },
    {
        "guid": "0009985c-9496-5293-b1b6-d45f26a4bd65",
        "first": "Ronnie",
        "last": "Carson",
        "street": "Gavnev Parkway",
        "city": "Kecafij",
        "zip": 88269
    },
    {
        "guid": "000af5cc-f741-5e78-b2b8-caeeee890e80",
        "first": "Jeremy",
        "last": "Roy",
        "street": "Veido Park",
        "city": "Mancide",
        "zip": 80634
    },
    {
        "guid": "0011bddd-8297-5ed4-8f72-08420a1b4e04",
        "first": "Dominic",
        "last": "Garrett",
        "street": "Juuh Avenue",
        "city": "Ritwumud",
        "zip": 79439
    },
    {
        "guid": "0015e530-dc55-567f-8ef9-ae7a785acd0a",
        "first": "Robert",
        "last": "Flowers",
        "street": "Hicaf Place",
        "city": "Bobanu",
        "zip": 91066
    },
    {
        "guid": "001be049-85f8-5953-885b-3a381a70ea5b",
        "first": "Leo",
        "last": "Strickland",
        "street": "Omuhuz Key",
        "city": "Evposu",
        "zip": 1569
    },
    {
        "guid": "001f2454-04fb-5632-94c8-80a1118552c5",
        "first": "Mittie",
        "last": "Bowers",
        "street": "Urmaz Turnpike",
        "city": "Koecbiv",
        "zip": 25644
    },
    {
        "guid": "00211b36-cc47-54dc-889f-0a5fd066e4f1",
        "first": "Eunice",
        "last": "Tyler",
        "street": "Ufno Court",
        "city": "Famkocbut",
        "zip": 74936
    },
    {
        "guid": "0023af59-d298-576a-8ff4-46a19424354e",
        "first": "Rachel",
        "last": "Henderson",
        "street": "Vowbon Manor",
        "city": "Behugce",
        "zip": 88137
    }
]