[{
        "guid": "0695fab7-be30-5200-afd1-a5d2b88883f8",
        "first": "Leah",
        "last": "Matthews",
        "street": "Idaoke Drive",
        "city": "Vuneoz",
        "zip": 23684
    },
    {
        "guid": "0921217a-dd50-5ff0-a41a-025f81e04cdd",
        "first": "Matthew",
        "last": "Smith",
        "street": "Vonot View",
        "city": "Fikimjeg",
        "zip": 30166
    },
    {
        "guid": "0ce542a7-ecf8-50a3-b647-7951f631e5db",
        "first": "Andrew",
        "last": "Matthews",
        "street": "Jolno Glen",
        "city": "Jekkurfi",
        "zip": 61012
    },
    {
        "guid": "0d4f785a-7db9-5511-be43-ff80a69441df",
        "first": "Matthew",
        "last": "McCarthy",
        "street": "Caecu Glen",
        "city": "Reurfo",
        "zip": 4814
    },
    {
        "guid": "113f0ede-a751-53bb-b3fd-0481b40d11f0",
        "first": "Fannie",
        "last": "Matthews",
        "street": "Wimte Terrace",
        "city": "Uhicakuro",
        "zip": 73064
    },
    {
        "guid": "11e0aa82-e9e5-504f-8a4e-acbdec708675",
        "first": "Matthew",
        "last": "Price",
        "street": "Rere Plaza",
        "city": "Alweac",
        "zip": 7484
    },
    {
        "guid": "136b069e-07fe-58a1-9421-3b5baf5c328c",
        "first": "Matthew",
        "last": "Dennis",
        "street": "Eleh Highway",
        "city": "Murabup",
        "zip": 3591
    },
    {
        "guid": "14226550-fc69-5ab0-9965-3afc47bca34f",
        "first": "Louis",
        "last": "Matthews",
        "street": "Odeh Mill",
        "city": "Faehkaw",
        "zip": 56838
    },
    {
        "guid": "16cc2546-acf5-56f0-93e9-4ba2a6fc3edf",
        "first": "Kyle",
        "last": "Matthews",
        "street": "Ocih Highway",
        "city": "Gedefuzi",
        "zip": 49765
    },
    {
        "guid": "19a920c4-6b65-536d-a4b3-e8ab3964f9b7",
        "first": "Samuel",
        "last": "Matthews",
        "street": "Ehdaf Lane",
        "city": "Odteaci",
        "zip": 25281
    },
    {
        "guid": "19d922ec-d35f-5da2-89ef-524a4a56a7fa",
        "first": "Hester",
        "last": "Matthews",
        "street": "Vejov Ridge",
        "city": "Zuokire",
        "zip": 74530
    },
    {
        "guid": "25bdf6b3-bc8e-583e-8165-8d1cf4d75c79",
        "first": "Gabriel",
        "last": "Matthews",
        "street": "Joza River",
        "city": "Witozi",
        "zip": 88424
    },
    {
        "guid": "29c4a3ea-765d-580e-8f1f-9221c7667da8",
        "first": "Peter",
        "last": "Matthews",
        "street": "Ojso Manor",
        "city": "Tejulihi",
        "zip": 82908
    }
]